CTC2_L_00660001-01
1 24804U 24920PB  26070.40853009  .00000000  00000+0  00000-0 0  9998
2 24804  55.0000   0.0000 0000000   0.0000   0.0000  3.21836079    10
CTC2_L_00660001-02
1 24805U 23975QL  26070.40853009  .00000000  00000+0  00000-0 0  9998
2 24805  55.0000   0.0000 0000000   0.0000  36.0000  3.21836079    10
CTC2_L_00660001-03
1 24806U 25221ES  26070.40853009  .00000000  00000+0  00000-0 0  9995
2 24806  55.0000   0.0000 0000000   0.0000  72.0000  3.21836079    11
CTC2_L_00660001-04
1 24807U 23593JH  26070.40853009  .00000000  00000+0  00000-0 0  9996
2 24807  55.0000   0.0000 0000000   0.0000 108.0000  3.21836079    12
CTC2_L_00660001-05
1 24808U 24554OR  26070.40853009  .00000000  00000+0  00000-0 0  9995
2 24808  55.0000   0.0000 0000000   0.0000 144.0000  3.21836079    13
CTC2_L_00660001-06
1 24809U 24159AM  26070.40853009  .00000000  00000+0  00000-0 0  9997
2 24809  55.0000   0.0000 0000000   0.0000 180.0000  3.21836079    14
CTC2_L_00660001-07
1 24810U 26061RM  26070.40853009  .00000000  00000+0  00000-0 0  9993
2 24810  55.0000   0.0000 0000000   0.0000 216.0000  3.21836079    16
CTC2_L_00660001-08
1 24811U 24721ZT  26070.40853009  .00000000  00000+0  00000-0 0  9995
2 24811  55.0000   0.0000 0000000   0.0000 252.0000  3.21836079    17
CTC2_L_00660001-09
1 24812U 25066AV  26070.40853009  .00000000  00000+0  00000-0 0  9999
2 24812  55.0000   0.0000 0000000   0.0000 288.0000  3.21836079    17
CTC2_L_00660001-10
1 24813U 24192HH  26070.40853009  .00000000  00000+0  00000-0 0  9999
2 24813  55.0000   0.0000 0000000   0.0000 324.0000  3.21836079    19
CTC2_L_00660002-01
1 24814U 24667ZI  26070.40853009  .00000000  00000+0  00000-0 0  9997
2 24814  55.0000  30.0000 0000000   0.0000  12.0000  3.21836079    17
CTC2_L_00660002-02
1 24815U 22099SB  26070.40853009  .00000000  00000+0  00000-0 0  9995
2 24815  55.0000  30.0000 0000000   0.0000  48.0000  3.21836079    17
CTC2_L_00660002-03
1 24816U 25902UF  26070.40853009  .00000000  00000+0  00000-0 0  9992
2 24816  55.0000  30.0000 0000000   0.0000  84.0000  3.21836079    18
CTC2_L_00660002-04
1 24817U 22333CO  26070.40853009  .00000000  00000+0  00000-0 0  9998
2 24817  55.0000  30.0000 0000000   0.0000 120.0000  3.21836079    10
CTC2_L_00660002-05
1 24818U 23076VV  26070.40853009  .00000000  00000+0  00000-0 0  9994
2 24818  55.0000  30.0000 0000000   0.0000 156.0000  3.21836079    10
CTC2_L_00660002-06
1 24819U 22138IY  26070.40853009  .00000000  00000+0  00000-0 0  9993
2 24819  55.0000  30.0000 0000000   0.0000 192.0000  3.21836079    11
CTC2_L_00660002-07
1 24820U 24025CS  26070.40853009  .00000000  00000+0  00000-0 0  9992
2 24820  55.0000  30.0000 0000000   0.0000 228.0000  3.21836079    13
CTC2_L_00660002-08
1 24821U 26777O   26070.40853009  .00000000  00000+0  00000-0 0  9999
2 24821  55.0000  30.0000 0000000   0.0000 264.0000  3.21836079    14
CTC2_L_00660002-09
1 24822U 24676XM  26070.40853009  .00000000  00000+0  00000-0 0  9996
2 24822  55.0000  30.0000 0000000   0.0000 300.0000  3.21836079    16
CTC2_L_00660002-10
1 24823U 24173RF  26070.40853009  .00000000  00000+0  00000-0 0  9999
2 24823  55.0000  30.0000 0000000   0.0000 336.0000  3.21836079    16
CTC2_L_00660003-01
1 24824U 22109RQ  26070.40853009  .00000000  00000+0  00000-0 0  9997
2 24824  55.0000  60.0000 0000000   0.0000  24.0000  3.21836079    14
CTC2_L_00660003-02
1 24825U 24429GI  26070.40853009  .00000000  00000+0  00000-0 0  9995
2 24825  55.0000  60.0000 0000000   0.0000  60.0000  3.21836079    15
CTC2_L_00660003-03
1 24826U 24615GP  26070.40853009  .00000000  00000+0  00000-0 0  9993
2 24826  55.0000  60.0000 0000000   0.0000  96.0000  3.21836079    15
CTC2_L_00660003-04
1 24827U 23158PY  26070.40853009  .00000000  00000+0  00000-0 0  9995
2 24827  55.0000  60.0000 0000000   0.0000 132.0000  3.21836079    17
CTC2_L_00660003-05
1 24828U 26929BD  26070.40853009  .00000000  00000+0  00000-0 0  9995
2 24828  55.0000  60.0000 0000000   0.0000 168.0000  3.21836079    17
CTC2_L_00660003-06
1 24829U 25026AV  26070.40853009  .00000000  00000+0  00000-0 0  9993
2 24829  55.0000  60.0000 0000000   0.0000 204.0000  3.21836079    19
CTC2_L_00660003-07
1 24830U 25135KA  26070.40853009  .00000000  00000+0  00000-0 0  9996
2 24830  55.0000  60.0000 0000000   0.0000 240.0000  3.21836079    11
CTC2_L_00660003-08
1 24831U 24753BQ  26070.40853009  .00000000  00000+0  00000-0 0  9992
2 24831  55.0000  60.0000 0000000   0.0000 276.0000  3.21836079    11
CTC2_L_00660003-09
1 24832U 24555DH  26070.40853009  .00000000  00000+0  00000-0 0  9993
2 24832  55.0000  60.0000 0000000   0.0000 312.0000  3.21836079    13
CTC2_L_00660003-10
1 24833U 24602VR  26070.40853009  .00000000  00000+0  00000-0 0  9997
2 24833  55.0000  60.0000 0000000   0.0000 348.0000  3.21836079    13
CTC2_L_00660004-01
1 24834U 22786FC  26070.40853009  .00000000  00000+0  00000-0 0  9999
2 24834  55.0000  90.0000 0000000   0.0000  36.0000  3.21836079    11
CTC2_L_00660004-02
1 24835U 22961LT  26070.40853009  .00000000  00000+0  00000-0 0  9995
2 24835  55.0000  90.0000 0000000   0.0000  72.0000  3.21836079    12
CTC2_L_00660004-03
1 24836U 22004ZH  26070.40853009  .00000000  00000+0  00000-0 0  9994
2 24836  55.0000  90.0000 0000000   0.0000 108.0000  3.21836079    13
CTC2_L_00660004-04
1 24837U 26543KD  26070.40853009  .00000000  00000+0  00000-0 0  9997
2 24837  55.0000  90.0000 0000000   0.0000 144.0000  3.21836079    14
CTC2_L_00660004-05
1 24838U 23189HG  26070.40853009  .00000000  00000+0  00000-0 0  9991
2 24838  55.0000  90.0000 0000000   0.0000 180.0000  3.21836079    15
CTC2_L_00660004-06
1 24839U 25728WF  26070.40853009  .00000000  00000+0  00000-0 0  9993
2 24839  55.0000  90.0000 0000000   0.0000 216.0000  3.21836079    16
CTC2_L_00660004-07
1 24840U 22378LW  26070.40853009  .00000000  00000+0  00000-0 0  9993
2 24840  55.0000  90.0000 0000000   0.0000 252.0000  3.21836079    18
CTC2_L_00660004-08
1 24841U 25435TS  26070.40853009  .00000000  00000+0  00000-0 0  9991
2 24841  55.0000  90.0000 0000000   0.0000 288.0000  3.21836079    18
CTC2_L_00660004-09
1 24842U 22771JH  26070.40853009  .00000000  00000+0  00000-0 0  9992
2 24842  55.0000  90.0000 0000000   0.0000 324.0000  3.21836079    10
CTC2_L_00660004-10
1 24843U 22469XK  26070.40853009  .00000000  00000+0  00000-0 0  9997
2 24843  55.0000  90.0000 0000000   0.0000   0.0000  3.21836079    12
CTC2_L_00660005-01
1 24844U 23885LQ  26070.40853009  .00000000  00000+0  00000-0 0  9991
2 24844  55.0000 120.0000 0000000   0.0000  48.0000  3.21836079    19
CTC2_L_00660005-02
1 24845U 24766CM  26070.40853009  .00000000  00000+0  00000-0 0  9991
2 24845  55.0000 120.0000 0000000   0.0000  84.0000  3.21836079    10
CTC2_L_00660005-03
1 24846U 22214Q   26070.40853009  .00000000  00000+0  00000-0 0  9998
2 24846  55.0000 120.0000 0000000   0.0000 120.0000  3.21836079    12
CTC2_L_00660005-04
1 24847U 26971DA  26070.40853009  .00000000  00000+0  00000-0 0  9993
2 24847  55.0000 120.0000 0000000   0.0000 156.0000  3.21836079    12
CTC2_L_00660005-05
1 24848U 26602MB  26070.40853009  .00000000  00000+0  00000-0 0  9995
2 24848  55.0000 120.0000 0000000   0.0000 192.0000  3.21836079    13
CTC2_L_00660005-06
1 24849U 25265SE  26070.40853009  .00000000  00000+0  00000-0 0  9990
2 24849  55.0000 120.0000 0000000   0.0000 228.0000  3.21836079    14
CTC2_L_00660005-07
1 24850U 26469YS  26070.40853009  .00000000  00000+0  00000-0 0  9999
2 24850  55.0000 120.0000 0000000   0.0000 264.0000  3.21836079    16
CTC2_L_00660005-08
1 24851U 23118FO  26070.40853009  .00000000  00000+0  00000-0 0  9998
2 24851  55.0000 120.0000 0000000   0.0000 300.0000  3.21836079    18
CTC2_L_00660005-09
1 24852U 25846OW  26070.40853009  .00000000  00000+0  00000-0 0  9999
2 24852  55.0000 120.0000 0000000   0.0000 336.0000  3.21836079    18
CTC2_L_00660005-10
1 24853U 22778LC  26070.40853009  .00000000  00000+0  00000-0 0  9991
2 24853  55.0000 120.0000 0000000   0.0000  12.0000  3.21836079    10
CTC2_L_00660006-01
1 24854U 24639O   26070.40853009  .00000000  00000+0  00000-0 0  9990
2 24854  55.0000 150.0000 0000000   0.0000  60.0000  3.21836079    17
CTC2_L_00660006-02
1 24855U 24664OZ  26070.40853009  .00000000  00000+0  00000-0 0  9999
2 24855  55.0000 150.0000 0000000   0.0000  96.0000  3.21836079    17
CTC2_L_00660006-03
1 24856U 25266OP  26070.40853009  .00000000  00000+0  00000-0 0  9999
2 24856  55.0000 150.0000 0000000   0.0000 132.0000  3.21836079    19
CTC2_L_00660006-04
1 24857U 26071GC  26070.40853009  .00000000  00000+0  00000-0 0  9995
2 24857  55.0000 150.0000 0000000   0.0000 168.0000  3.21836079    19
CTC2_L_00660006-05
1 24858U 22803M   26070.40853009  .00000000  00000+0  00000-0 0  9995
2 24858  55.0000 150.0000 0000000   0.0000 204.0000  3.21836079    11
CTC2_L_00660006-06
1 24859U 23189JC  26070.40853009  .00000000  00000+0  00000-0 0  9994
2 24859  55.0000 150.0000 0000000   0.0000 240.0000  3.21836079    12
CTC2_L_00660006-07
1 24860U 23946DO  26070.40853009  .00000000  00000+0  00000-0 0  9997
2 24860  55.0000 150.0000 0000000   0.0000 276.0000  3.21836079    13
CTC2_L_00660006-08
1 24861U 22907XY  26070.40853009  .00000000  00000+0  00000-0 0  9994
2 24861  55.0000 150.0000 0000000   0.0000 312.0000  3.21836079    15
CTC2_L_00660006-09
1 24862U 24795WA  26070.40853009  .00000000  00000+0  00000-0 0  9992
2 24862  55.0000 150.0000 0000000   0.0000 348.0000  3.21836079    15
CTC2_L_00660006-10
1 24863U 25827KO  26070.40853009  .00000000  00000+0  00000-0 0  9990
2 24863  55.0000 150.0000 0000000   0.0000  24.0000  3.21836079    17
CTC2_L_00660007-01
1 24864U 24822WK  26070.40853009  .00000000  00000+0  00000-0 0  9995
2 24864  55.0000 180.0000 0000000   0.0000  72.0000  3.21836079    14
CTC2_L_00660007-02
1 24865U 23397LX  26070.40853009  .00000000  00000+0  00000-0 0  9992
2 24865  55.0000 180.0000 0000000   0.0000 108.0000  3.21836079    15
